{
    "links": {
        "self": "http://www.neowsapp.com/rest/v1/neo/3715414?api_key=iIulBulltgU6a56xZRHN4H3l9WmuAYTsLGpBGhQ2"
    },
    "id": "3715414",
    "neo_reference_id": "3715414",
    "name": "(2015 CG62)",
    "designation": "2015 CG62",
    "nasa_jpl_url": "http://ssd.jpl.nasa.gov/sbdb.cgi?sstr=3715414",
    "absolute_magnitude_h": 21.6,
    "estimated_diameter": {
        "kilometers": {
            "estimated_diameter_min": 0.1272198785,
            "estimated_diameter_max": 0.2844722965
        },
        "meters": {
            "estimated_diameter_min": 127.2198785394,
            "estimated_diameter_max": 284.4722965033
        },
        "miles": {
            "estimated_diameter_min": 0.0790507431,
            "estimated_diameter_max": 0.1767628354
        },
        "feet": {
            "estimated_diameter_min": 417.3880663071,
            "estimated_diameter_max": 933.3080892598
        }
    },
    "is_potentially_hazardous_asteroid": false,
    "close_approach_data": [
        {
            "close_approach_date": "1996-06-12",
            "close_approach_date_full": "1996-Jun-12 14:00",
            "epoch_date_close_approach": 834588000000,
            "relative_velocity": {
                "kilometers_per_second": "8.2944977691",
                "kilometers_per_hour": "29860.1919689338",
                "miles_per_hour": "18553.9620598078"
            },
            "miss_distance": {
                "astronomical": "0.0987389012",
                "lunar": "38.4094325668",
                "kilometers": "14771129.305660444",
                "miles": "9178354.1446003672"
            },
            "orbiting_body": "Mars"
        },
        {
            "close_approach_date": "2015-02-18",
            "close_approach_date_full": "2015-Feb-18 11:04",
            "epoch_date_close_approach": 1424257440000,
            "relative_velocity": {
                "kilometers_per_second": "1.1937615278",
                "kilometers_per_hour": "4297.5414999247",
                "miles_per_hour": "2670.3251614393"
            },
            "miss_distance": {
                "astronomical": "0.2283613482",
                "lunar": "88.8325644498",
                "kilometers": "34162371.281048334",
                "miles": "21227513.1811776492"
            },
            "orbiting_body": "Earth"
        }
    ],
    "orbital_data": {
        "orbit_id": "3",
        "orbit_determination_date": "2017-04-06 08:35:37",
        "first_observation_date": "2015-02-01",
        "last_observation_date": "2015-02-19",
        "data_arc_in_days": 18,
        "observations_used": 10,
        "orbit_uncertainty": "7",
        "minimum_orbit_intersection": ".226863",
        "jupiter_tisserand_invariant": "4.531",
        "epoch_osculation": "2459000.5",
        "eccentricity": ".1885192923688921",
        "semi_major_axis": "1.495803200140835",
        "inclination": "1.832300458326373",
        "ascending_node_longitude": "336.8978084606921",
        "orbital_period": "668.2056044869046",
        "perihelion_distance": "1.213815439327161",
        "perihelion_argument": "163.8515089068121",
        "aphelion_distance": "1.77779096095451",
        "perihelion_time": "2459065.227759429500",
        "mean_anomaly": "325.127509799154",
        "mean_motion": ".5387563312588995",
        "equinox": "J2000",
        "orbit_class": {
            "orbit_class_type": "AMO",
            "orbit_class_description": "Near-Earth asteroid orbits similar to that of 1221 Amor",
            "orbit_class_range": "1.017 AU < q (perihelion) < 1.3 AU"
        }
    },
    "is_sentry_object": false
}